NORAD_CAT_ID,OBJECT_NAME,OBJECT_TYPE,EPOCH,MEAN_MOTION,ECCENTRICITY,INCLINATION,RA_OF_ASC_NODE,ARG_OF_PERICENTER,MEAN_ANOMALY,BSTAR,MEAN_MOTION_DOT,MEAN_MOTION_DDOT,TLE_LINE0,TLE_LINE1,TLE_LINE2,SEMIMAJOR_AXIS,PERIOD,APOGEE,PERIGEE,DECAYED
52628.0,STARLINK-4001,PAYLOAD,2024-05-06 22:58:13,15.08838097,0.0001347,53.2184,59.6407,96.7208,263.3938,-5.3847e-06,-3.74e-06,0.0,0 STARLINK-4001,1 52628U 22052AG  24127.95710337 -.00000374  00000-0 -53847-5 0  9993,2 52628  53.2184  59.6407 0001347  96.7208 263.3938 15.08838097109379,6917.886,95.438,540.683,538.819,0.0
52628.0,STARLINK-4001,PAYLOAD,2024-05-07 02:09:00,15.08835581,0.0001315,53.2186,59.0459,93.9358,266.1785,-5.989e-05,-1.241e-05,0.0,0 STARLINK-4001,1 52628U 22052AG  24128.08958626 -.00001241  00000-0 -59890-4 0  9990,2 52628  53.2186  59.0459 0001315  93.9358 266.1785 15.08835581109772,6917.894,95.438,540.669,538.849,0.0
52628.0,STARLINK-4001,PAYLOAD,2024-05-07 05:19:46,15.08831626,0.000129,53.2187,58.4525,93.6538,266.4602,-3.1604e-05,-7.91e-06,0.0,0 STARLINK-4001,1 52628U 22052AG  24128.22206867 -.00000791  00000-0 -31604-4 0  9991,2 52628  53.2187  58.4525 0001290  93.6538 266.4602 15.08831626109417,6917.906,95.438,540.663,538.879,0.0
52628.0,STARLINK-4001,PAYLOAD,2024-05-08 11:32:04,15.08852548,0.0001249,53.2194,52.8055,100.1071,260.0062,9.3345e-05,1.199e-05,0.0,0 STARLINK-4001,1 52628U 22052AG  24129.48061276  .00001199  00000-0  93345-4 0  9994,2 52628  53.2194  52.8055 0001249 100.1071 260.0062 15.08852548109989,6917.842,95.437,540.571,538.843,0.0
52628.0,STARLINK-4001,PAYLOAD,2024-05-08 22:39:48,15.08826542,0.000123,53.2186,50.7238,99.0044,261.1087,4.2558e-05,3.89e-06,0.0,0 STARLINK-4001,1 52628U 22052AG  24129.94431240  .00000389  00000-0  42558-4 0  9997,2 52628  53.2186  50.7238 0001230  99.0044 261.1087 15.08826542109676,6917.922,95.438,540.637,538.936,0.0
52628.0,STARLINK-4001,PAYLOAD,2024-05-09 01:50:34,15.08831132,0.0001242,53.2186,50.1309,105.8243,254.2886,6.8677e-05,8.05e-06,0.0,0 STARLINK-4001,1 52628U 22052AG  24130.07678961  .00000805  00000-0  68677-4 0  9999,2 52628  53.2186  50.1309 0001242 105.8243 254.2886 15.08831132110076,6917.907,95.438,540.632,538.913,0.0
52628.0,STARLINK-4001,PAYLOAD,2024-05-09 11:22:52,15.08848523,0.0001202,53.2198,48.343,95.9912,264.1217,0.00021163,3.083e-05,0.0,0 STARLINK-4001,1 52628U 22052AG  24130.47421627  .00003083  00000-0  21163-3 0  9997,2 52628  53.2198  48.3430 0001202  95.9912 264.1217 15.08848523110138,6917.854,95.437,540.551,538.888,0.0
52628.0,STARLINK-4001,PAYLOAD,2024-05-09 22:30:35,15.08841407,0.0001923,53.2192,46.2639,89.5937,270.5275,5.7462e-05,6.26e-06,0.0,0 STARLINK-4001,1 52628U 22052AG  24130.93790906  .00000626  00000-0  57462-4 0  9999,2 52628  53.2192  46.2639 0001923  89.5937 270.5275 15.08841407109829,6917.876,95.437,541.071,538.411,0.0
52628.0,STARLINK-4001,PAYLOAD,2024-05-10 03:16:44,15.08841494,0.0001543,53.2205,45.3739,98.6868,261.4299,6.512e-05,7.49e-06,0.0,0 STARLINK-4001,1 52628U 22052AG  24131.13662833  .00000749  00000-0  65120-4 0  9995,2 52628  53.2205  45.3739 0001543  98.6868 261.4299 15.08841494110235,6917.876,95.437,540.808,538.673,0.0
52628.0,STARLINK-4001,PAYLOAD,2024-05-10 11:13:39,15.08852152,0.0001434,53.2202,43.8845,91.8632,268.2525,0.00015635,2.202e-05,0.0,0 STARLINK-4001,1 52628U 22052AG  24131.46781869  .00002202  00000-0  15635-3 0  9993,2 52628  53.2202  43.8845 0001434  91.8632 268.2525 15.08852152110281,6917.843,95.437,540.7,538.716,0.0
52628.0,STARLINK-4001,PAYLOAD,2024-05-10 22:21:22,15.08843525,0.0002239,53.2196,41.8026,85.9282,274.1966,0.00018819,2.708e-05,0.0,0 STARLINK-4001,1 52628U 22052AG  24131.93150508  .00002708  00000-0  18819-3 0  9993,2 52628  53.2196  41.8026 0002239  85.9282 274.1966 15.08843525109974,6917.87,95.437,541.284,538.186,0.0
52628.0,STARLINK-4001,PAYLOAD,2024-05-11 03:07:29,15.08875478,0.0001229,53.2197,40.9068,101.5978,258.5152,0.00026105,3.873e-05,0.0,0 STARLINK-4001,1 52628U 22052AG  24132.13020033  .00003873  00000-0  26105-3 0  9996,2 52628  53.2197  40.9068 0001229 101.5978 258.5152 15.08875478110388,6917.772,95.435,540.487,538.787,0.0
52628.0,STARLINK-4001,PAYLOAD,2024-05-11 22:12:11,15.08788687,0.0001338,53.2204,37.3429,94.3461,265.7684,-0.00061557,-0.00010057,0.0,0 STARLINK-4001,1 52628U 22052AG  24132.92513118 -.00010057  00000-0 -61557-3 0  9998,2 52628  53.2204  37.3429 0001338  94.3461 265.7684 15.08788687110122,6918.037,95.441,540.828,538.977,0.0
52628.0,STARLINK-4001,PAYLOAD,2024-05-12 04:33:45,15.08757038,0.0001128,53.2174,36.1539,93.52,266.5921,-0.0013645,-0.00021889,0.0,0 STARLINK-4001,1 52628U 22052AG  24133.19010470 -.00021889  00000-0 -13645-2 0  9990,2 52628  53.2174  36.1539 0001128  93.5200 266.5921 15.08757038110541,6918.134,95.443,540.779,539.219,0.0
52628.0,STARLINK-4001,PAYLOAD,2024-05-12 10:55:18,15.08761934,0.0001461,53.2194,34.9635,100.4775,259.6382,-0.00098792,-0.00015943,0.0,0 STARLINK-4001,1 52628U 22052AG  24133.45507748 -.00015943  00000-0 -98792-3 0  9999,2 52628  53.2194  34.9635 0001461 100.4775 259.6382 15.08761934110589,6918.119,95.442,540.995,538.973,0.0
52628.0,STARLINK-4001,PAYLOAD,2024-05-12 17:16:51,15.08774109,2.31e-05,53.2207,33.7755,94.5055,265.5964,-0.00056958,-9.324e-05,0.0,0 STARLINK-4001,1 52628U 22052AG  24133.72004074 -.00009324  00000-0 -56958-3 0  9997,2 52628  53.2207  33.7755 0000231  94.5055 265.5964 15.08774109110627,6918.082,95.442,540.107,539.787,0.0
52628.0,STARLINK-4001,PAYLOAD,2024-05-12 23:38:23,15.08812772,0.0001582,53.2191,32.5863,86.2562,273.8611,0.00020408,2.959e-05,0.0,0 STARLINK-4001,1 52628U 22052AG  24133.98499647  .00002959  00000-0  20408-3 0  9995,2 52628  53.2191  32.5863 0001582  86.2562 273.8611 15.08812772110661,6917.964,95.439,540.923,538.734,0.0
52628.0,STARLINK-4001,PAYLOAD,2024-05-13 10:46:05,15.08832903,0.0001648,53.221,30.5024,97.9379,262.18,0.00070184,0.00010897,0.0,0 STARLINK-4001,1 52628U 22052AG  24134.44867723  .00010897  00000-0  70184-3 0  9997,2 52628  53.2210  30.5024 0001648  97.9379 262.1800 15.08832903110735,6917.902,95.438,540.907,538.627,0.0
52628.0,STARLINK-4001,PAYLOAD,2024-05-13 17:07:38,15.08836499,0.0001341,53.2179,29.3156,74.7756,285.3384,0.0012299,0.00019338,0.0,0 STARLINK-4001,1 52628U 22052AG  24134.71364054  .00019338  00000-0  12299-2 0  9997,2 52628  53.2179  29.3156 0001341  74.7756 285.3384 15.08836499110393,6917.891,95.438,540.684,538.828,0.0
52628.0,STARLINK-4001,PAYLOAD,2024-05-14 02:39:56,15.08859695,0.0001897,53.2175,27.5304,79.5363,280.5843,0.0012995,0.00020465,0.0,0 STARLINK-4001,1 52628U 22052AG  24135.11107082  .00020465  00000-0  12995-2 0  9994,2 52628  53.2175  27.5304 0001897  79.5363 280.5843 15.08859695110836,6917.82,95.436,540.998,538.373,0.0
52628.0,STARLINK-4001,PAYLOAD,2024-05-14 23:19:55,15.08873257,0.0001673,53.2184,23.6615,87.9991,272.1192,0.00042255,6.449e-05,0.0,0 STARLINK-4001,1 52628U 22052AG  24135.97216534  .00006449  00000-0  42255-3 0  9990,2 52628  53.2184  23.6615 0001673  87.9991 272.1192 15.08873257110586,6917.779,95.435,540.801,538.486,0.0
52628.0,STARLINK-4001,PAYLOAD,2024-05-15 19:59:55,15.08853484,0.0001476,53.2193,19.7926,111.5214,248.5936,-0.00020271,-3.514e-05,0.0,0 STARLINK-4001,1 52628U 22052AG  24136.83328539 -.00003514  00000-0 -20271-3 0  9991,2 52628  53.2193  19.7926 0001476 111.5214 248.5936 15.08853484111090,6917.839,95.437,540.725,538.683,0.0
52628.0,STARLINK-4001,PAYLOAD,2024-05-15 23:10:41,15.08858977,0.0001406,53.2181,19.2022,98.052,262.0631,-0.00014823,-2.648e-05,0.0,0 STARLINK-4001,1 52628U 22052AG  24136.96576181 -.00002648  00000-0 -14823-3 0  9996,2 52628  53.2181  19.2022 0001406  98.0520 262.0631 15.08858977110736,6917.822,95.436,540.66,538.715,0.0
52628.0,STARLINK-4001,PAYLOAD,2024-05-16 08:42:58,15.08867925,0.0001134,53.2195,17.4183,95.3716,264.7406,5.234e-06,-2.05e-06,0.0,0 STARLINK-4001,1 52628U 22052AG  24137.36318147 -.00000205  00000-0  52340-5 0  9991,2 52628  53.2195  17.4183 0001134  95.3716 264.7406 15.08867925111175,6917.795,95.436,540.445,538.876,0.0
52628.0,STARLINK-4001,PAYLOAD,2024-05-16 16:39:56,15.08838962,0.0001722,53.2178,15.9308,72.9351,287.183,-5.4835e-05,-1.161e-05,0.0,0 STARLINK-4001,1 52628U 22052AG  24137.69439949 -.00001161  00000-0 -54835-4 0  9994,2 52628  53.2178  15.9308 0001722  72.9351 287.1830 15.08838962111222,6917.884,95.438,540.94,538.557,0.0
52628.0,STARLINK-4001,PAYLOAD,2024-05-17 08:33:47,15.08838316,0.0001227,53.2193,12.9615,93.2204,266.8928,-0.00014276,-2.559e-05,0.0,0 STARLINK-4001,1 52628U 22052AG  24138.35680120 -.00002559  00000-0 -14276-3 0  9993,2 52628  53.2193  12.9615 0001227  93.2204 266.8928 15.08838316110943,6917.886,95.438,540.599,538.902,0.0
52628.0,STARLINK-4001,PAYLOAD,2024-05-17 21:16:51,15.08839571,7.18e-05,53.2164,10.5749,61.5148,298.5916,0.00016539,2.345e-05,0.0,0 STARLINK-4001,1 52628U 22052AG  24138.88671181  .00002345  00000-0  16539-3 0  9993,2 52628  53.2164  10.5749 0000718  61.5148 298.5916 15.08839571111407,6917.882,95.438,540.243,539.25,0.0
52628.0,STARLINK-4001,PAYLOAD,2024-05-17 22:52:14,15.08843358,0.0001076,53.2196,10.2805,76.9361,283.1751,0.00019659,2.843e-05,0.0,0 STARLINK-4001,1 52628U 22052AG  24138.95294959  .00002843  00000-0  19659-3 0  9994,2 52628  53.2196  10.2805 0001076  76.9361 283.1751 15.08843358111031,6917.87,95.437,540.479,538.991,0.0
52628.0,STARLINK-4001,PAYLOAD,2024-05-18 00:27:37,15.08861384,8.32e-05,53.2174,9.9835,119.3859,240.7216,0.00041255,6.288e-05,0.0,0 STARLINK-4001,1 52628U 22052AG  24139.01918002  .00006288  00000-0  41255-3 0  9998,2 52628  53.2174   9.9835 0000832 119.3859 240.7216 15.08861384111425,6917.815,95.436,540.256,539.104,0.0
52628.0,STARLINK-4001,PAYLOAD,2024-05-18 08:24:31,15.08880405,0.0001288,53.2179,8.4969,52.7504,307.3605,0.00057157,8.83e-05,0.0,0 STARLINK-4001,1 52628U 22052AG  24139.35036749  .00008830  00000-0  57157-3 0  9997,2 52628  53.2179   8.4969 0001288  52.7504 307.3605 15.08880405111477,6917.757,95.435,540.513,538.731,0.0
